[{"OBJECT_NAME":"STARLINK-4772","OBJECT_ID":"2022-119AY","EPOCH":"2025-07-30T10:50:23.320320","MEAN_MOTION":15.08835259,"ECCENTRICITY":0.0001115,"INCLINATION":53.216,"RA_OF_ASC_NODE":216.8793,"ARG_OF_PERICENTER":78.5177,"MEAN_ANOMALY":281.594,"EPHEMERIS_TYPE":0,"CLASSIFICATION_TYPE":"U","NORAD_CAT_ID":53932,"ELEMENT_SET_NO":999,"REV_AT_EPOCH":15849,"BSTAR":3.0365e-5,"MEAN_MOTION_DOT":1.95e-6,"MEAN_MOTION_DDOT":0},{"OBJECT_NAME":"STARLINK-4782","OBJECT_ID":"2022-119AZ","EPOCH":"2025-07-30T10:20:32.014176","MEAN_MOTION":15.08843308,"ECCENTRICITY":0.0001146,"INCLINATION":53.2164,"RA_OF_ASC_NODE":221.7399,"ARG_OF_PERICENTER":77.4813,"MEAN_ANOMALY":282.6307,"EPHEMERIS_TYPE":0,"CLASSIFICATION_TYPE":"U","NORAD_CAT_ID":53933,"ELEMENT_SET_NO":999,"REV_AT_EPOCH":15841,"BSTAR":2.537e-5,"MEAN_MOTION_DOT":1.16e-6,"MEAN_MOTION_DDOT":0},{"OBJECT_NAME":"STARLINK-4775","OBJECT_ID":"2022-119BA","EPOCH":"2025-07-30T17:06:37.871712","MEAN_MOTION":15.08840599,"ECCENTRICITY":0.0001418,"INCLINATION":53.2161,"RA_OF_ASC_NODE":215.6645,"ARG_OF_PERICENTER":85.5134,"MEAN_ANOMALY":274.602,"EPHEMERIS_TYPE":0,"CLASSIFICATION_TYPE":"U","NORAD_CAT_ID":53934,"ELEMENT_SET_NO":999,"REV_AT_EPOCH":15810,"BSTAR":9.3356e-5,"MEAN_MOTION_DOT":1.198e-5,"MEAN_MOTION_DDOT":0},{"OBJECT_NAME":"STARLINK-5000","OBJECT_ID":"2022-119BB","EPOCH":"2025-07-30T16:41:25.349856","MEAN_MOTION":15.08836976,"ECCENTRICITY":0.0001202,"INCLINATION":53.2164,"RA_OF_ASC_NODE":205.5728,"ARG_OF_PERICENTER":83.3854,"MEAN_ANOMALY":276.7275,"EPHEMERIS_TYPE":0,"CLASSIFICATION_TYPE":"U","NORAD_CAT_ID":53935,"ELEMENT_SET_NO":999,"REV_AT_EPOCH":15824,"BSTAR":3.1749e-5,"MEAN_MOTION_DOT":2.17e-6,"MEAN_MOTION_DDOT":0},{"OBJECT_NAME":"STARLINK-4791","OBJECT_ID":"2022-119BC","EPOCH":"2025-07-30T10:02:37.819392","MEAN_MOTION":15.08839318,"ECCENTRICITY":0.0001054,"INCLINATION":53.2161,"RA_OF_ASC_NODE":216.672,"ARG_OF_PERICENTER":68.2288,"MEAN_ANOMALY":291.8816,"EPHEMERIS_TYPE":0,"CLASSIFICATION_TYPE":"U","NORAD_CAT_ID":53936,"ELEMENT_SET_NO":999,"REV_AT_EPOCH":15849,"BSTAR":1.2349e-5,"MEAN_MOTION_DOT":-9.1e-7,"MEAN_MOTION_DDOT":0},{"OBJECT_NAME":"STARLINK-4633","OBJECT_ID":"2022-125A","EPOCH":"2025-07-30T13:04:51.541536","MEAN_MOTION":15.08843812,"ECCENTRICITY":0.0001282,"INCLINATION":53.2169,"RA_OF_ASC_NODE":141.524,"ARG_OF_PERICENTER":90.5439,"MEAN_ANOMALY":269.57,"EPHEMERIS_TYPE":0,"CLASSIFICATION_TYPE":"U","NORAD_CAT_ID":53964,"ELEMENT_SET_NO":999,"REV_AT_EPOCH":15578,"BSTAR":5.3523e-5,"MEAN_MOTION_DOT":5.64e-6,"MEAN_MOTION_DDOT":0},{"OBJECT_NAME":"STARLINK-4578","OBJECT_ID":"2022-125B","EPOCH":"2025-07-30T13:00:56.100672","MEAN_MOTION":15.0884243,"ECCENTRICITY":0.0001415,"INCLINATION":53.2167,"RA_OF_ASC_NODE":141.5064,"ARG_OF_PERICENTER":89.095,"MEAN_ANOMALY":271.0205,"EPHEMERIS_TYPE":0,"CLASSIFICATION_TYPE":"U","NORAD_CAT_ID":53965,"ELEMENT_SET_NO":999,"REV_AT_EPOCH":15585,"BSTAR":5.2364e-5,"MEAN_MOTION_DOT":5.46e-6,"MEAN_MOTION_DDOT":0},{"OBJECT_NAME":"STARLINK-4635","OBJECT_ID":"2022-125C","EPOCH":"2025-07-30T12:54:15.009408","MEAN_MOTION":15.08840914,"ECCENTRICITY":0.0001406,"INCLINATION":53.2169,"RA_OF_ASC_NODE":141.4757,"ARG_OF_PERICENTER":90.8729,"MEAN_ANOMALY":269.2424,"EPHEMERIS_TYPE":0,"CLASSIFICATION_TYPE":"U","NORAD_CAT_ID":53966,"ELEMENT_SET_NO":999,"REV_AT_EPOCH":15585,"BSTAR":6.5884e-5,"MEAN_MOTION_DOT":7.61e-6,"MEAN_MOTION_DDOT":0},{"OBJECT_NAME":"STARLINK-4634","OBJECT_ID":"2022-125D","EPOCH":"2025-07-30T12:48:56.473344","MEAN_MOTION":15.08855207,"ECCENTRICITY":0.0001213,"INCLINATION":53.2161,"RA_OF_ASC_NODE":141.452,"ARG_OF_PERICENTER":97.9044,"MEAN_ANOMALY":262.2085,"EPHEMERIS_TYPE":0,"CLASSIFICATION_TYPE":"U","NORAD_CAT_ID":53967,"ELEMENT_SET_NO":999,"REV_AT_EPOCH":15578,"BSTAR":0.00021432,"MEAN_MOTION_DOT":3.126e-5,"MEAN_MOTION_DDOT":0},{"OBJECT_NAME":"STARLINK-4629","OBJECT_ID":"2022-125E","EPOCH":"2025-07-30T12:33:01.965024","MEAN_MOTION":15.0883764,"ECCENTRICITY":0.0001403,"INCLINATION":53.2173,"RA_OF_ASC_NODE":141.3836,"ARG_OF_PERICENTER":88.8693,"MEAN_ANOMALY":271.2459,"EPHEMERIS_TYPE":0,"CLASSIFICATION_TYPE":"U","NORAD_CAT_ID":53968,"ELEMENT_SET_NO":999,"REV_AT_EPOCH":15585,"BSTAR":5.212e-5,"MEAN_MOTION_DOT":5.42e-6,"MEAN_MOTION_DDOT":0},{"OBJECT_NAME":"STARLINK-4468","OBJECT_ID":"2022-125F","EPOCH":"2025-07-30T12:43:38.517888","MEAN_MOTION":15.08838655,"ECCENTRICITY":0.0001518,"INCLINATION":53.2172,"RA_OF_ASC_NODE":141.43,"ARG_OF_PERICENTER":85.8856,"MEAN_ANOMALY":274.231,"EPHEMERIS_TYPE":0,"CLASSIFICATION_TYPE":"U","NORAD_CAT_ID":53969,"ELEMENT_SET_NO":999,"REV_AT_EPOCH":15578,"BSTAR":1.3937e-5,"MEAN_MOTION_DOT":-6.6e-7,"MEAN_MOTION_DDOT":0},{"OBJECT_NAME":"STARLINK-4567","OBJECT_ID":"2022-125G","EPOCH":"2025-07-30T12:46:57.441792","MEAN_MOTION":15.08841223,"ECCENTRICITY":0.0001422,"INCLINATION":53.217,"RA_OF_ASC_NODE":136.4651,"ARG_OF_PERICENTER":91.7984,"MEAN_ANOMALY":268.3171,"EPHEMERIS_TYPE":0,"CLASSIFICATION_TYPE":"U","NORAD_CAT_ID":53970,"ELEMENT_SET_NO":999,"REV_AT_EPOCH":15586,"BSTAR":1.1935e-5,"MEAN_MOTION_DOT":-9.8e-7,"MEAN_MOTION_DDOT":0},{"OBJECT_NAME":"STARLINK-4639","OBJECT_ID":"2022-125H","EPOCH":"2025-07-30T22:00:01.999584","MEAN_MOTION":15.37289282,"ECCENTRICITY":0.0001461,"INCLINATION":53.2191,"RA_OF_ASC_NODE":130.1805,"ARG_OF_PERICENTER":116.3829,"MEAN_ANOMALY":54.5544,"EPHEMERIS_TYPE":0,"CLASSIFICATION_TYPE":"U","NORAD_CAT_ID":53971,"ELEMENT_SET_NO":999,"REV_AT_EPOCH":15604,"BSTAR":0.0023393,"MEAN_MOTION_DOT":0.00087328,"MEAN_MOTION_DDOT":0},{"OBJECT_NAME":"STARLINK-5156","OBJECT_ID":"2022-125K","EPOCH":"2025-07-30T12:27:43.752096","MEAN_MOTION":15.08835909,"ECCENTRICITY":0.0002453,"INCLINATION":53.2177,"RA_OF_ASC_NODE":141.3608,"ARG_OF_PERICENTER":89.5816,"MEAN_ANOMALY":270.5457,"EPHEMERIS_TYPE":0,"CLASSIFICATION_TYPE":"U","NORAD_CAT_ID":53973,"ELEMENT_SET_NO":999,"REV_AT_EPOCH":15578,"BSTAR":3.3174e-5,"MEAN_MOTION_DOT":2.4e-6,"MEAN_MOTION_DDOT":0},{"OBJECT_NAME":"STARLINK-5159","OBJECT_ID":"2022-125L","EPOCH":"2025-07-30T21:14:56.704128","MEAN_MOTION":15.0883845,"ECCENTRICITY":0.0001459,"INCLINATION":53.217,"RA_OF_ASC_NODE":119.4388,"ARG_OF_PERICENTER":101.4582,"MEAN_ANOMALY":258.6574,"EPHEMERIS_TYPE":0,"CLASSIFICATION_TYPE":"U","NORAD_CAT_ID":53974,"ELEMENT_SET_NO":999,"REV_AT_EPOCH":15619,"BSTAR":-1.081e-5,"MEAN_MOTION_DOT":-4.6e-6,"MEAN_MOTION_DDOT":0},{"OBJECT_NAME":"STARLINK-5137","OBJECT_ID":"2022-125M","EPOCH":"2025-07-30T05:21:44.904096","MEAN_MOTION":15.08840301,"ECCENTRICITY":0.0001685,"INCLINATION":53.2171,"RA_OF_ASC_NODE":137.3884,"ARG_OF_PERICENTER":88.5655,"MEAN_ANOMALY":271.553,"EPHEMERIS_TYPE":0,"CLASSIFICATION_TYPE":"U","NORAD_CAT_ID":53975,"ELEMENT_SET_NO":999,"REV_AT_EPOCH":15581,"BSTAR":-9.9954e-6,"MEAN_MOTION_DOT":-4.47e-6,"MEAN_MOTION_DDOT":0},{"OBJECT_NAME":"STARLINK-5134","OBJECT_ID":"2022-125N","EPOCH":"2025-07-30T11:16:13.770048","MEAN_MOTION":15.0883686,"ECCENTRICITY":0.0001404,"INCLINATION":53.2163,"RA_OF_ASC_NODE":121.8226,"ARG_OF_PERICENTER":88.9473,"MEAN_ANOMALY":271.168,"EPHEMERIS_TYPE":0,"CLASSIFICATION_TYPE":"U","NORAD_CAT_ID":53976,"ELEMENT_SET_NO":999,"REV_AT_EPOCH":15605,"BSTAR":4.0422e-5,"MEAN_MOTION_DOT":3.55e-6,"MEAN_MOTION_DDOT":0}]
