STARLINK-4772           
1 53932U 22119AY  25211.45165880  .00000195  00000+0  30365-4 0  9990
2 53932  53.2160 216.8793 0001115  78.5177 281.5940 15.08835259158492
STARLINK-4782           
1 53933U 22119AZ  25211.43092609  .00000116  00000+0  25370-4 0  9990
2 53933  53.2164 221.7399 0001146  77.4813 282.6307 15.08843308158418
STARLINK-4775           
1 53934U 22119BA  25211.71293833  .00001198  00000+0  93356-4 0  9994
2 53934  53.2161 215.6645 0001418  85.5134 274.6020 15.08840599158108
STARLINK-5000           
1 53935U 22119BB  25211.69543229  .00000217  00000+0  31749-4 0  9998
2 53935  53.2164 205.5728 0001202  83.3854 276.7275 15.08836976158242
STARLINK-4791           
1 53936U 22119BC  25211.41849328 -.00000091  00000+0  12349-4 0  9994
2 53936  53.2161 216.6720 0001054  68.2288 291.8816 15.08839318158492
STARLINK-4633           
1 53964U 22125A   25211.54504099  .00000564  00000+0  53523-4 0  9992
2 53964  53.2169 141.5240 0001282  90.5439 269.5700 15.08843812155780
STARLINK-4578           
1 53965U 22125B   25211.54231598  .00000546  00000+0  52364-4 0  9996
2 53965  53.2167 141.5064 0001415  89.0950 271.0205 15.08842430155853
STARLINK-4635           
1 53966U 22125C   25211.53767372  .00000761  00000+0  65884-4 0  9990
2 53966  53.2169 141.4757 0001406  90.8729 269.2424 15.08840914155855
STARLINK-4634           
1 53967U 22125D   25211.53398696  .00003126  00000+0  21432-3 0  9998
2 53967  53.2161 141.4520 0001213  97.9044 262.2085 15.08855207155789
STARLINK-4629           
1 53968U 22125E   25211.52293941  .00000542  00000+0  52120-4 0  9993
2 53968  53.2173 141.3836 0001403  88.8693 271.2459 15.08837640155856
STARLINK-4468           
1 53969U 22125F   25211.53030692 -.00000066  00000+0  13937-4 0  9992
2 53969  53.2172 141.4300 0001518  85.8856 274.2310 15.08838655155786
STARLINK-4567           
1 53970U 22125G   25211.53260928 -.00000098  00000+0  11935-4 0  9992
2 53970  53.2170 136.4651 0001422  91.7984 268.3171 15.08841223155864
STARLINK-4639           
1 53971U 22125H   25211.91668981  .00087328  00000+0  23393-2 0  9995
2 53971  53.2191 130.1805 0001461 116.3829  54.5544 15.37289282156048
STARLINK-5156           
1 53973U 22125K   25211.51925639  .00000240  00000+0  33174-4 0  9997
2 53973  53.2177 141.3608 0002453  89.5816 270.5457 15.08835909155782
STARLINK-5159           
1 53974U 22125L   25211.88537852 -.00000460  00000+0 -10810-4 0  9992
2 53974  53.2170 119.4388 0001459 101.4582 258.6574 15.08838450156193
STARLINK-5137           
1 53975U 22125M   25211.22343639 -.00000447  00000+0 -99954-5 0  9991
2 53975  53.2171 137.3884 0001685  88.5655 271.5530 15.08840301155814
STARLINK-5134           
1 53976U 22125N   25211.46960382  .00000355  00000+0  40422-4 0  9999
2 53976  53.2163 121.8226 0001404  88.9473 271.1680 15.08836860156059
